TEVEL2-3                
1 63218U 25052J   26068.64540225  .00020365  00000+0  69446-3 0  9991
2 63218  97.3994 324.7775 0004761 105.7353 254.4413 15.30377031 54855
STARLINK-33780          
1 63459U 25069AC  26068.47499403  .00020849  00000+0  71431-3 0  9992
2 63459  53.1585 143.3268 0001213  77.6329 282.4807 15.30188672 53262
